[{"OBJECT_NAME":"EXO-0","OBJECT_ID":"2023-174DK","EPOCH":"2026-03-09T17:03:04.419648","MEAN_MOTION":15.32821991,"ECCENTRICITY":0.00098779,"INCLINATION":97.3864,"RA_OF_ASC_NODE":148.9039,"ARG_OF_PERICENTER":157.1125,"MEAN_ANOMALY":203.0559,"EPHEMERIS_TYPE":0,"CLASSIFICATION_TYPE":"U","NORAD_CAT_ID":59175,"ELEMENT_SET_NO":999,"REV_AT_EPOCH":12979,"BSTAR":0.00036716083,"MEAN_MOTION_DOT":0.00011582,"MEAN_MOTION_DDOT":0},{"OBJECT_NAME":"STARLINK-32842","OBJECT_ID":"2025-018S","EPOCH":"2026-03-09T21:58:02.877312","MEAN_MOTION":15.30217658,"ECCENTRICITY":0.00019145,"INCLINATION":53.162,"RA_OF_ASC_NODE":308.4976,"ARG_OF_PERICENTER":157.6694,"MEAN_ANOMALY":202.4391,"EPHEMERIS_TYPE":0,"CLASSIFICATION_TYPE":"U","NORAD_CAT_ID":62822,"ELEMENT_SET_NO":999,"REV_AT_EPOCH":6321,"BSTAR":0.0011642878,"MEAN_MOTION_DOT":0.00034302,"MEAN_MOTION_DDOT":0}]
